{
  "type": "FeatureCollection",
  "features": [
    {
      "type": "Feature",
      "properties": {
        "norad_id": 66340,
        "name": "STARLINK-35218",
        "group": "last-30-days",
        "lat": -42.481832603275116,
        "lon": -81.63144955033646,
        "alt_km": 416.70590960686513,
        "timestamp": "2025-12-06T20:37:54.811002+00:00",
        "meta_object_name": "STARLINK-35218",
        "meta_object_id": "2025-253X",
        "meta_epoch": "2025-12-06T11:46:37.871040",
        "meta_mean_motion": 15.5063144,
        "meta_eccentricity": 0.0002082,
        "meta_inclination": 43.0009,
        "meta_ra_of_asc_node": 21.2031,
        "meta_arg_of_pericenter": 285.0455,
        "meta_mean_anomaly": 75.0174,
        "meta_ephemeris_type": 0,
        "meta_classification_type": "U",
        "meta_norad_cat_id": 66340,
        "meta_element_set_no": 999,
        "meta_rev_at_epoch": 596,
        "meta_bstar": 0.0019467445,
        "meta_mean_motion_dot": 0.00115787,
        "meta_mean_motion_ddot": 0,
        "tle_line1": "1 66340U 25253X   25340.49071610  .00115787  00000+0  19467-2 0  9995",
        "tle_line2": "2 66340  43.0009  21.2031 0002082 285.0455  75.0174 15.50631440  5960"
      },
      "geometry": {
        "type": "Point",
        "coordinates": [
          -81.63144955033646,
          -42.481832603275116
        ]
      }
    },
    {
      "type": "Feature",
      "properties": {
        "norad_id": 66341,
        "name": "STARLINK-35522",
        "group": "last-30-days",
        "lat": 17.091196442669922,
        "lon": -179.9538791303987,
        "alt_km": 441.6090067896048,
        "timestamp": "2025-12-06T20:37:54.811014+00:00",
        "meta_object_name": "STARLINK-35522",
        "meta_object_id": "2025-253Y",
        "meta_epoch": "2025-12-06T14:00:01.999872",
        "meta_mean_motion": 15.40652758,
        "meta_eccentricity": 9.726e-05,
        "meta_inclination": 43.0008,
        "meta_ra_of_asc_node": 20.9043,
        "meta_arg_of_pericenter": 269.2677,
        "meta_mean_anomaly": 150.7933,
        "meta_ephemeris_type": 0,
        "meta_classification_type": "U",
        "meta_norad_cat_id": 66341,
        "meta_element_set_no": 999,
        "meta_rev_at_epoch": 603,
        "meta_bstar": 0.0024890593,
        "meta_mean_motion_dot": 0.00104946,
        "meta_mean_motion_ddot": 0,
        "tle_line1": "1 66341U 25253Y   25340.58335648  .00104946  00000+0  24891-2 0  9992",
        "tle_line2": "2 66341  43.0008  20.9043 0000972 269.2677 150.7933 15.40652758  6032"
      },
      "geometry": {
        "type": "Point",
        "coordinates": [
          -179.9538791303987,
          17.091196442669922
        ]
      }
    },
    {
      "type": "Feature",
      "properties": {
        "norad_id": 66342,
        "name": "STARLINK-35535",
        "group": "last-30-days",
        "lat": 42.14457017982826,
        "lon": 95.68690513671531,
        "alt_km": 438.54858711746965,
        "timestamp": "2025-12-06T20:37:54.811027+00:00",
        "meta_object_name": "STARLINK-35535",
        "meta_object_id": "2025-253Z",
        "meta_epoch": "2025-12-06T10:57:08.026560",
        "meta_mean_motion": 15.40732338,
        "meta_eccentricity": 0.00022671,
        "meta_inclination": 43.0008,
        "meta_ra_of_asc_node": 21.8111,
        "meta_arg_of_pericenter": 242.0871,
        "meta_mean_anomaly": 117.9756,
        "meta_ephemeris_type": 0,
        "meta_classification_type": "U",
        "meta_norad_cat_id": 66342,
        "meta_element_set_no": 999,
        "meta_rev_at_epoch": 595,
        "meta_bstar": 0.0019502259,
        "meta_mean_motion_dot": 0.00082135,
        "meta_mean_motion_ddot": 0,
        "tle_line1": "1 66342U 25253Z   25340.45634290  .00082135  00000+0  19502-2 0  9992",
        "tle_line2": "2 66342  43.0008  21.8111 0002267 242.0871 117.9756 15.40732338  5954"
      },
      "geometry": {
        "type": "Point",
        "coordinates": [
          95.68690513671531,
          42.14457017982826
        ]
      }
    },
    {
      "type": "Feature",
      "properties": {
        "norad_id": 66343,
        "name": "STARLINK-35467",
        "group": "last-30-days",
        "lat": 27.45034148133075,
        "lon": 53.45537119423771,
        "alt_km": 440.5374114114702,
        "timestamp": "2025-12-06T20:37:54.811039+00:00",
        "meta_object_name": "STARLINK-35467",
        "meta_object_id": "2025-253AA",
        "meta_epoch": "2025-12-06T11:06:48.615552",
        "meta_mean_motion": 15.40782297,
        "meta_eccentricity": 0.00024099,
        "meta_inclination": 43.0012,
        "meta_ra_of_asc_node": 21.8634,
        "meta_arg_of_pericenter": 257.1609,
        "meta_mean_anomaly": 102.8979,
        "meta_ephemeris_type": 0,
        "meta_classification_type": "U",
        "meta_norad_cat_id": 66343,
        "meta_element_set_no": 999,
        "meta_rev_at_epoch": 595,
        "meta_bstar": 0.0021273825,
        "meta_mean_motion_dot": 0.00089865,
        "meta_mean_motion_ddot": 0,
        "tle_line1": "1 66343U 25253AA  25340.46306268  .00089865  00000+0  21274-2 0  9991",
        "tle_line2": "2 66343  43.0012  21.8634 0002409 257.1609 102.8979 15.40782297  5953"
      },
      "geometry": {
        "type": "Point",
        "coordinates": [
          53.45537119423771,
          27.45034148133075
        ]
      }
    },
    {
      "type": "Feature",
      "properties": {
        "norad_id": 66344,
        "name": "STARLINK-35511",
        "group": "last-30-days",
        "lat": -40.61956814471603,
        "lon": -93.9419309215685,
        "alt_km": 440.7933138508861,
        "timestamp": "2025-12-06T20:37:54.811050+00:00",
        "meta_object_name": "STARLINK-35511",
        "meta_object_id": "2025-253AB",
        "meta_epoch": "2025-12-06T14:00:01.999872",
        "meta_mean_motion": 15.43525381,
        "meta_eccentricity": 0.00016827,
        "meta_inclination": 43,
        "meta_ra_of_asc_node": 20.6687,
        "meta_arg_of_pericenter": 287.8813,
        "meta_mean_anomaly": 228.1594,
        "meta_ephemeris_type": 0,
        "meta_classification_type": "U",
        "meta_norad_cat_id": 66344,
        "meta_element_set_no": 999,
        "meta_rev_at_epoch": 594,
        "meta_bstar": -0.039394974,
        "meta_mean_motion_dot": -0.01621648,
        "meta_mean_motion_ddot": 0,
        "tle_line1": "1 66344U 25253AB  25340.58335648 -.01621648  00000+0 -39395-1 0  9995",
        "tle_line2": "2 66344  43.0000  20.6687 0001682 287.8813 228.1594 15.43525381  5941"
      },
      "geometry": {
        "type": "Point",
        "coordinates": [
          -93.9419309215685,
          -40.61956814471603
        ]
      }
    },
    {
      "type": "Feature",
      "properties": {
        "norad_id": 66345,
        "name": "STARLINK-35440",
        "group": "last-30-days",
        "lat": 8.878735035868996,
        "lon": -170.3748235791366,
        "alt_km": 442.5631772111765,
        "timestamp": "2025-12-06T20:37:54.811061+00:00",
        "meta_object_name": "STARLINK-35440",
        "meta_object_id": "2025-253AC",
        "meta_epoch": "2025-12-06T14:00:01.999872",
        "meta_mean_motion": 15.40662587,
        "meta_eccentricity": 9.238e-05,
        "meta_inclination": 43.0007,
        "meta_ra_of_asc_node": 20.8681,
        "meta_arg_of_pericenter": 252.4359,
        "meta_mean_anomaly": 180.0714,
        "meta_ephemeris_type": 0,
        "meta_classification_type": "U",
        "meta_norad_cat_id": 66345,
        "meta_element_set_no": 999,
        "meta_rev_at_epoch": 594,
        "meta_bstar": 0.0015282688,
        "meta_mean_motion_dot": 0.00063993,
        "meta_mean_motion_ddot": 0,
        "tle_line1": "1 66345U 25253AC  25340.58335648  .00063993  00000+0  15283-2 0  9997",
        "tle_line2": "2 66345  43.0007  20.8681 0000923 252.4359 180.0714 15.40662587  5942"
      },
      "geometry": {
        "type": "Point",
        "coordinates": [
          -170.3748235791366,
          8.878735035868996
        ]
      }
    },
    {
      "type": "Feature",
      "properties": {
        "norad_id": 66346,
        "name": "STARLINK-35482",
        "group": "last-30-days",
        "lat": -23.99749116229145,
        "lon": -132.3071198116654,
        "alt_km": 445.9646447937712,
        "timestamp": "2025-12-06T20:37:54.811073+00:00",
        "meta_object_name": "STARLINK-35482",
        "meta_object_id": "2025-253AD",
        "meta_epoch": "2025-12-06T14:00:01.999872",
        "meta_mean_motion": 15.40607879,
        "meta_eccentricity": 0.00012966,
        "meta_inclination": 43.0002,
        "meta_ra_of_asc_node": 20.7482,
        "meta_arg_of_pericenter": 274.8031,
        "meta_mean_anomaly": 207.4635,
        "meta_ephemeris_type": 0,
        "meta_classification_type": "U",
        "meta_norad_cat_id": 66346,
        "meta_element_set_no": 999,
        "meta_rev_at_epoch": 603,
        "meta_bstar": 0.0029413326,
        "meta_mean_motion_dot": 0.00124202,
        "meta_mean_motion_ddot": 0,
        "tle_line1": "1 66346U 25253AD  25340.58335648  .00124202  00000+0  29413-2 0  9999",
        "tle_line2": "2 66346  43.0002  20.7482 0001296 274.8031 207.4635 15.40607879  6035"
      },
      "geometry": {
        "type": "Point",
        "coordinates": [
          -132.3071198116654,
          -23.99749116229145
        ]
      }
    }
  ]
}